address,city,state,zipcode,id
147 N Quincy St,Abington,MA,02351,1
259 Brockton Ave,Abington,MA,02351,2
323 Centre Ave,Abington,MA,02351,3
937 Bedford St,Abington,MA,02351,4
100 Powdermill Rd,Acton,MA,01720,5
182 Great Rd,Acton,MA,01720,6
212 Main St,Acton,MA,01720,7
315 Main St,Acton,MA,01720,8
44 Great Rd,Acton,MA,01720,9
150 S Main St,Acushnet,MA,02743,10
177 Columbia St,Adams,MA,01220,11
152 Silver Street,Agawam,MA,01001,12
389 Main St,Agawam,MA,01001,13
179 Brighton Ave,Allston,MA,02134,14
209 N Harvard St,Allston,MA,02134,15
210 Harvard Ave,Allston,MA,02134,16
219 Cambridge St,Allston,MA,02134,17
509 Cambridge St,Allston,MA,02134,18
60 Everett St,Allston,MA,02134,19
80 Macy St,Amesbury,MA,01913,20
175 University Dr,Amherst,MA,01002,21
312 College St,Amherst,MA,01002,22
139 River Rd,Andover,MA,01810,23
309 Lowell St,Andover,MA,01810,24
349 N Main St,Andover,MA,01810,25
93 Main Street,Andover,MA,01810,26
101 Broadway,Arlington,MA,02474,27
1234 Massachusetts Ave,Arlington,MA,02476,28
21 Summer St,Arlington,MA,02474,29
369 Mass Ave,Arlington,MA,02474,30
6 Gardner Rd,Ashburnham,MA,01430,31
123 Union St,Ashland,MA,01721,32
190 Pond St,Ashland,MA,01721,33
41 W. Union St,Ashland,MA,01721,34
60 S. Main St,Assonet,MA,02702,35
68 South Main St,Assonet,MA,02702,36
1271 Templeton Rd,Athol,MA,01331,37
1634 S Main St,Athol,MA,01331,38
2143 Main St,Athol,MA,01331,39
104 N Main St,Attleboro,MA,02703,40
106 Washington Street,Attleboro,MA,02703,41
134 Pleasant St,Attleboro,MA,02703,42
217 South Main St,Attleboro,MA,02703,43
227 South Ave,Attleboro,MA,02703,44
285 County St,Attleboro,MA,02703,45
337 Washington St Rte 1,Attleboro,MA,02703,46
718 Washington St,Attleboro,MA,02703,47
310 Washington St,Auburn,MA,01501,48
386 Southbridge St,Auburn,MA,01501,49
717 Southbridge St,Auburn,MA,01501,50
895 Southbridge St,Auburn,MA,01501,51
20 Memorial Dr,Avon,MA,02322,52
30 Memorial Dr,Avon,MA,02322,53
5 Stockwell Drive,Avon,MA,02322,54
600 Page St,Avon,MA,02322,55
16 Park St,Ayer,MA,01432,56
34 Elm St,Baldwinville,MA,01436,57
570 Summer St,Barre,MA,01005,58
308 Great Rd,Bedford,MA,01730,59
44 North Rd,Bedford,MA,01730,60
Hanscom Air Force Base,Bedford,MA,01730,61
16 Federal St,Belchertown,MA,01007,62
37 State St,Belchertown,MA,01007,63
189 Hartford Ave,Bellingham,MA,02019,64
20 Pulaski Blvd,Bellingham,MA,02019,65
207 Mechanic St,Bellingham,MA,02019,66
300 Hartford Ave,Bellingham,MA,02019,67
815 S. Main St,Bellingham,MA,02019,68
350 Pleasant St,Belmont,MA,02478,69
353 Trapelo Rd,Belmont,MA,02478,70
52 Church St,Belmont,MA,02478,71
126 Myricks St,Berkley,MA,02779,72
267 Central St,Berlin,MA,01503,73
64 River Rd W,Berlin,MA,01503,74
50 Church St,Bernardston,MA,01337,75
112 Elliott St,Beverly,MA,01915,76
15 West Street,Beverly,MA,01915,77
41 Enon St,Beverly,MA,01915,78
411 Cabot St,Beverly,MA,01915,79
44 Dodge St,Beverly,MA,01915,80
443 Essex St,Beverly,MA,01915,81
459 Boston Road,Billerica,MA,01821,82
612 Middlesex Tpke,Billerica,MA,01821,83
729 Boston Rd,Billerica,MA,01821,84
2 Main St,Blackstone,MA,01504,85
476 Main St,Bolton,MA,01740,86
3086 South Main St,Bondsville,MA,01009,87
1 Cambridge St,Boston,MA,02114,88
1 Harborside Drive,Boston,MA,02128,89
1 Harborside Drive B/C Connector,Boston,MA,02128,90
1 South Station,Boston,MA,02110,91
1 Summer St,Boston,MA,02110,92
100 1st Ave,Boston,MA,02129,93
100 Cambridge St,Boston,MA,02114,94
100 City Hall Plaza,Boston,MA,02114,95
100 Legends Way,Boston,MA,02114,96
100 Morrissey Blvd,Boston,MA,02125,97
101 Summer St,Boston,MA,02110,98
106 Cambridge St,Boston,MA,02114,99
111 State St,Boston,MA,02109,100
1131 Tremont St,Boston,MA,02120,101
1138 Washington St,Boston,MA,02118,102
115 Forsyth St,Boston,MA,02115,103
1443 Tremont St,Boston,MA,02120,104
145 Dartmouth St,Boston,MA,02116,105
145 Dartmouth St,Boston,MA,02116,106
147 Tremont St,Boston,MA,02111,107
153 Massachusetts Ave,Boston,MA,02115,108
155 Seaport Blvd,Boston,MA,02210,109
16 Kneeland St,Boston,MA,02111,110
16 Tremont St,Boston,MA,02116,111
1631 Tremont St,Boston,MA,02120,112
17 Melnea Cass Blvd,Boston,MA,02119,113
180 Canal St,Boston,MA,02114,114
1912 Beacon St,Boston,MA,02135,115
20 North St,Boston,MA,02109,116
22 Beacon St,Boston,MA,02108,117
235 Washington St,Boston,MA,02108,118
265 Franklin St,Boston,MA,02109,119
283 Huntington Ave,Boston,MA,02115,120
296 Cambridge St,Boston,MA,02114,121
3 Post Office Square,Boston,MA,02109,122
330 Brookline Ave,Boston,MA,02215,123
330 Congress St,Boston,MA,02210,124
330 Washington St,Boston,MA,02108,125
350 Longwood Ave,Boston,MA,02115,126
360 Huntington Ave,Boston,MA,02115,127
37 S Huntington Ave,Boston,MA,02130,128
4 Yawkey Way,Boston,MA,02115,129
4 Yawkey Way,Boston,MA,02215,130
4 Yawkey Way,Boston,MA,02215,131
400 Fenway,Boston,MA,02115,132
411 D St,Boston,MA,02210,133
417 Washington St,Boston,MA,02108,134
434 Mass Ave,Boston,MA,02118,135
457 Brookline Ave,Boston,MA,02215,136
510 Southampton St,Boston,MA,02127,137
530 Commonwealth Ave,Boston,MA,02215,138
59 Causeway St,Boston,MA,02114,139
616 Massachusetts Ave,Boston,MA,02118,140
630 Washington St,Boston,MA,02111,141
702 Commonwealth Ave,Boston,MA,02215,142
711 Atlantic Ave,Boston,MA,02111,143
715 Boylston St,Boston,MA,02116,144
750 Washington St,Boston,MA,02111,145
775 Commonwealth Ave,Boston,MA,02215,146
8 Park Plz,Boston,MA,02116,147
800 Boylston St,Boston,MA,02199,148
895 Morton St,Boston,MA,02126,149
Causeway Street,Boston,MA,02114,150
Logal International Airport,Boston,MA,02128,151
Logan Aiport,Boston,MA,02128,152
Logan International Airport,Boston,MA,02128,153
Logan International Airport,Boston,MA,02128,154
One Fleet Center,Boston,MA,02114,155
One Legends Way,Boston,MA,02114,156
174 Clay Pond Rd,Bourne,MA,02532,157
2 Bourne Rotary Cir N,Bourne,MA,02532,158
1425 Mass Ave,Boxborough,MA,01719,159
270 Shrewsbury St/Rte 140,Boylston,MA,01505,160
15 S Main Street,Bradford,MA,01835,161
1172 Washington St,Braintree,MA,02184,162
2140 Washington St,Braintree,MA,02184,163
238 Grove St,Braintree,MA,02184,164
240 Ivory St,Braintree,MA,02184,165
250 Granite St,Braintree,MA,02184,166
29 Hayward Street,Braintree,MA,02184,167
375 Washington St,Braintree,MA,02184,168
421 Quincy Ave,Braintree,MA,02184,169
551 Granite St,Braintree,MA,02184,170
553 Pond St,Braintree,MA,02184,171
15 Lower Rd,Brewster,MA,02631,172
171 Broad St,Bridgewater,MA,02324,173
750 Bedford Street,Bridgewater,MA,02324,174
955 Pleasant St,Bridgewater,MA,02324,175
Route 24 Northbound,Bridgewater,MA,02324,176
Route 24 Southbound,Bridgewater,MA,02324,177
214 N. Beacon St,Brighton,MA,02135,178
350 Washington St,Brighton,MA,02135,179
598 Washington St,Brighton,MA,02135,180
736 Cambridge St,Brighton,MA,02135,181
1000 W Chestnut St,Brockton,MA,02301,182
1001 N Main St,Brockton,MA,02301,183
1280 Belmont St,Brockton,MA,02301,184
1775 Main St,Brockton,MA,02301,185
245 E Ashland St,Brockton,MA,02302,186
304 Belmont St,Brockton,MA,02301,187
317 N Pearl St,Brockton,MA,02301,188
43 Torrey St,Brockton,MA,02301,189
532 Westgate Dr,Brockton,MA,02301,190
587 Main St,Brockton,MA,02301,191
634 Centre St,Brockton,MA,02302,192
635 Crescent St,Brockton,MA,02302,193
66 Montello St,Brockton,MA,02301,194
784 Belmont St,Brockton,MA,02301,195
1316 Beacon St,Brookline,MA,02446,196
265 Boylston St,Brookline,MA,02445,197
8 Harvard St,Brookline,MA,02445,198
10 Wall St,Burlington,MA,01803,199
182A Cambridge St,Burlington,MA,01803,200
240 Middlesex Tpke,Burlington,MA,01803,201
28 Winn St,Burlington,MA,01803,202
69 Middlesex Tpke,Burlington,MA,01803,203
75 Middlesex Tpke,Burlington,MA,01803,204
85 Wilmington Rd,Burlington,MA,01803,205
278 Main Street,Buzzards Bay,MA,02532,206
3052 Cranberry Hwy,Buzzards Bay,MA,02532,207
343 Scenic Hwy,Buzzards Bay,MA,02532,208
1 Broadway,Cambridge,MA,02142,209
1 White St,Cambridge,MA,02140,210
100 Cambridgeside Place,Cambridge,MA,02141,211
1001 Cambridge St,Cambridge,MA,02141,212
1001 Massachusetts Ave,Cambridge,MA,02138,213
201 Alewife Brook Pky,Cambridge,MA,02138,214
222 Broadway,Cambridge,MA,02142,215
2480 Massachusetts Ave,Cambridge,MA,02140,216
5 Third St,Cambridge,MA,02141,217
5 Cambridgepark Dr,Cambridge,MA,02140,218
517 Concord Ave,Cambridge,MA,02138,219
61 Church St,Cambridge,MA,02138,220
65 JFK St,Cambridge,MA,02138,221
808 Memorial Dr,Cambridge,MA,02139,222
22 Washington St,Canton,MA,02021,223
2790 Washington St,Canton,MA,02021,224
360 Turnpike St,Canton,MA,02021,225
600 Neponset St,Canton,MA,02021,226
725 Washington St,Canton,MA,02021,227
2 Montello St,Carver,MA,02330,228
300 Tremont St,Carver,MA,02330,229
80 Main Street,Carver,MA,02330,230
1648 Falmouth Rd,Centerville,MA,02632,231
11 Austin St,Charlestown,MA,02129,232
99 Cambridge St,Charlestown,MA,02129,233
28 Worcester Rd,Charlton,MA,01507,234
57 N Main St,Charlton,MA,01507,235
1563 Main Street,Chatham,MA,02663,236
105 Chelmsford St,Chelmsford,MA,01824,237
18 Boston Rd,Chelmsford,MA,01824,238
80 Drum Hill Rd,Chelmsford,MA,01824,239
12 Washington St,Chelsea,MA,02150,240
130 Broadway,Chelsea,MA,02150,241
234 Everett Ave,Chelsea,MA,02150,242
276 Beacham St,Chelsea,MA,02150,243
356 Eastern Ave,Chelsea,MA,02150,244
372 Washington Ave,Chelsea,MA,02150,245
83 Everett Ave,Chelsea,MA,02150,246
936-942 Broadway,Chelsea,MA,02150,247
173 North St,Cheshire,MA,01225,248
15 Commonwealth Ave,Chestnut Hill,MA,02467,249
27 Montgomery St,Chicopee,MA,01020,250
425 Meadow St,Chicopee,MA,01013,251
470 Burnett Rd,Chicopee,MA,01020,252
650 Memorial Dr,Chicopee,MA,01020,253
820 Memorial Dr,Chicopee,MA,01020,254
95 West St,Chicopee,MA,01013,255
953 Front St,Chicopee,MA,01020,256
1044 Main St,Clinton,MA,01510,257
493 Main St,Clinton,MA,01510,258
156 King St,Cohasset,MA,02025,259
740 Cushing Plz,Cohasset,MA,02025,260
1089 Concord Tpke,Concord,MA,01742,261
117 Thoreau Street,Concord,MA,01742,262
1641 Sudbury Rd,Concord,MA,01742,263
128 Water St,Danvers,MA,01923,264
153 Endicott St,Danvers,MA,01923,265
160 Andover Street,Danvers,MA,01923,266
301 Newberry St,Danvers,MA,01923,267
420 Newbury St,Danvers,MA,01923,268
79 Andover St,Danvers,MA,01923,269
99 High St,Danvers,MA,01923,270
255 State Rd,Dartmouth,MA,02747,271
285 Old Westport Rd,Dartmouth,MA,02747,272
531 Faunce Corner Road,Dartmouth,MA,02747,273
575 Dartmouth St,Dartmouth,MA,02748,274
823 State Rd,Dartmouth,MA,02747,275
36 Sawmill Lane,Dedham,MA,02026,276
806 Providence Hwy,Dedham,MA,02026,277
10 Andrews Parkway,Devens,MA,01432,278
1100 Mass Ave,Dorchester,MA,02125,279
1236 Dorchester Ave,Dorchester,MA,02125,280
1580-A Dorchester Ave,Dorchester,MA,02122,281
1931 Dorchester Ave,Dorchester,MA,02124,282
2100 Dorchester Ave,Dorchester,MA,02124,283
2290 Dorchester Ave,Dorchester,MA,02124,284
256 Boston St,Dorchester,MA,02125,285
456 Blue Hill Ave,Dorchester,MA,02121,286
719 Gallivan Blvd,Dorchester,MA,02122,287
847 Dorchester Ave,Dorchester,MA,02125,288
875 Morrissey Blvd,Dorchester,MA,02122,289
63 Main St,Douglas,MA,01516,290
14 Dedham St,Dover,MA,02030,291
1198 Mammoth Rd,Dracut,MA,01826,292
1373 Lakeview Ave,Dracut,MA,01826,293
1500 Broadway Rd,Dracut,MA,01826,294
177 Broadway Rd,Dracut,MA,01826,295
1777 Bridge St,Dracut,MA,01826,296
10 W Main St,Dudley,MA,01571,297
269 West Main St,Dudley,MA,01571,298
238 Pleasant Street,Dunstable,MA,01827,299
1518 Tremont St,Duxbury,MA,02332,300
5 Chestnut St,Duxbury,MA,02332,301
13-15 Maverick Square,East Boston,MA,02128,302
15 Transportation Way,East Boston,MA,02128,303
34 William Kelly Square,East Boston,MA,02128,304
354-356 Bennington St,East Boston,MA,02128,305
951 Bennington St,East Boston,MA,02128,306
Logan Airport,East Boston,MA,02128,307
Logan Airport,East Boston,MA,02128,308
Logan Airport,East Boston,MA,02128,309
Logan Airport,East Boston,MA,02128,310
Logan Airport,East Boston,MA,02128,311
Logan Airport,East Boston,MA,02128,312
Logan Airport,East Boston,MA,02128,313
Logan Airport,East Boston,MA,02128,314
204 N Bedford St,East Bridgewater,MA,02333,315
650 Plymouth St,East Bridgewater,MA,02333,316
1184 Sandwich Rd,East Falmouth,MA,02536,317
363 E. Falmouth Hwy,East Falmouth,MA,02536,318
1 Mason Rd,East Freetown,MA,02717,319
55 Maple St,East Longmeadow,MA,01028,320
21 Providence Hwy,East Walpole,MA,02032,321
3 Barker Rd,East Wareham,MA,02538,322
126 Northampton St,Easthampton,MA,01027,323
60 Union St,Easthampton,MA,01027,324
63 French King Hwy,Erving,MA,01344,325
125 Main St,Essex,MA,01929,326
1 Horizon Way,Everett,MA,02149,327
1885 Revere Beach Pkwy,Everett,MA,02149,328
1886 Revere Beach Pkwy,Everett,MA,02149,329
318 Broadway,Everett,MA,02149,330
321 Ferry St,Everett,MA,02149,331
339 Main St,Everett,MA,02149,332
524 Broadway,Everett,MA,02149,333
903 Broadway,Everett,MA,02149,334
18 Plaza Way,Fairhaven,MA,02719,335
277 Bridge St,Fairhaven,MA,02719,336
32 Howland Rd,Fairhaven,MA,02719,337
1023 North Main St,Fall River,MA,02720,338
1099 William S Canning Blvd,Fall River,MA,02721,339
15 Robeson St,Fall River,MA,02720,340
1510 Brayton Ave,Fall River,MA,02723,341
190 New Boston Rd,Fall River,MA,02720,342
234 Milliken Blvd,Fall River,MA,02721,343
320 Airport Rd,Fall River,MA,02720,344
325 Elsbree St,Fall River,MA,02720,345
350 Rodman St,Fall River,MA,02721,346
36 Innovation Way,Fall River,MA,02702,347
400 Quarry St,Fall River,MA,02723,348
499 Globe St,Fall River,MA,02724,349
540 Brayton Ave,Fall River,MA,02721,350
64 Rhode Island Ave,Fall River,MA,02724,351
657 Pleasant St,Fall River,MA,02721,352
435 Palmer Ave,Falmouth,MA,02540,353
614 Main St,Falmouth,MA,02540,354
38 N Westfield St,Feeding Hills,MA,01030,355
469 Main St,Fiskdale,MA,01518,356
129 Whalon St,Fitchburg,MA,01420,357
150 Great Wolf Drive,Fitchburg,MA,01420,358
151 Main St,Fitchburg,MA,01420,359
33-37 River St,Fitchburg,MA,01420,360
487 Princeton Rd,Fitchburg,MA,01420,361
511 Electric Ave,Fitchburg,MA,01420,362
580 John Fitch Hwy,Fitchburg,MA,01420,363
127 Main St,Foxboro,MA,02035,364
263 Main St,Foxboro,MA,02035,365
16 Washington St,Foxborough,MA,02035,366
221 Patriot Place,Foxborough,MA,02035,367
30 Commercial St,Foxborough,MA,02035,368
100 State St,Framingham,MA,01702,369
1170 Worcester Rd,Framingham,MA,01702,370
1670 Worcester Rd,Framingham,MA,01702,371
266 Concord St,Framingham,MA,01701,372
3 Nicholas Rd,Framingham,MA,01701,373
334 Waverly St,Framingham,MA,01702,374
430 Franklin St,Framingham,MA,01702,375
517 Worcester Rd,Framingham,MA,01701,376
692 Cochituate Rd,Framingham,MA,01701,377
490 King St,Franklin,MA,02038,378
541 W Central St,Franklin,MA,02038,379
547 East Central Street,Franklin,MA,02038,380
17 Pearson St,Gardner,MA,01440,381
221 Main St,Gardner,MA,01440,382
264 Timpany Blvd,Gardner,MA,01440,383
4 Oak St,Gardner,MA,01440,384
66 E Main St,Georgetown,MA,01833,385
103 Eastern Ave,Gloucester,MA,01930,386
130 Washington St,Gloucester,MA,01930,387
205 Main St,Gloucester,MA,01930,388
85 Washington St,Gloucester,MA,01930,389
72 Worcester St,Grafton,MA,01519,390
77 W State St,Granby,MA,01033,391
494 Main St,Great Barrington,MA,01230,392
295 Federal St,Greenfield,MA,01301,393
378 Federal St,Greenfield,MA,01301,394
60 Mohawk Trl,Greenfield,MA,01301,395
133 Main Street,Groton,MA,01450,396
318 Main St,Groton,MA,01450,397
788 Boston Rd,Groton,MA,01450,398
142 Russell St,Hadley,MA,01035,399
331 Russell St,Hadley,MA,01035,400
355 Plymouth St,Halifax,MA,02338,401
3 Allen Street,Hampden,MA,01036,402
1222 Hanover St,Hanover,MA,02339,403
1251 Washington St,Hanover,MA,02339,404
2117 Washington St,Hanover,MA,02339,405
416 Columbia Rd,Hanover,MA,02339,406
1120 Main St,Hanson,MA,02341,407
487 Liberty St,Hanson,MA,02341,408
188 Ayer Rd,Harvard,MA,01451,409
109 Route 137,Harwich,MA,02645,410
173 Pleasant Lake Dr,Harwich,MA,02645,411
175 Route 137,Harwich,MA,02645,412
481 Route 28,Harwich Port,MA,02646,413
20 Plaistow Rd,Haverhill,MA,01830,414
215 Winter St,Haverhill,MA,01830,415
259 Lincoln Ave,Haverhill,MA,01830,416
407 Amesbury Rd,Haverhill,MA,01830,417
614 Broadway,Haverhill,MA,01832,418
755 Main St,Haverhill,MA,01830,419
784 River St,Haverhill,MA,01832,420
915 S Main St,Haverhill,MA,01835,421
142 Main St,Haydenville,MA,01039,422
187 Whiting St,Hingham,MA,02043,423
315 Lincoln St,Hingham,MA,02043,424
30 Union St,Holbrook,MA,02343,425
57 S. Franklin St,Holbrook,MA,02343,426
1175 Main St,Holden,MA,01520,427
5 Shrewsbury St,Holden,MA,01520,428
441 Washington St,Holliston,MA,01746,429
1600 Northampton St,Holyoke,MA,01040,430
225 Whiting Farms Rd,Holyoke,MA,01040,431
330 Main St,Holyoke,MA,01040,432
473 Pleasant St,Holyoke,MA,01040,433
144 Hartford Ave,Hopedale,MA,01747,434
76 South St,Hopkinton,MA,01748,435
78 W Main St,Hopkinton,MA,01748,436
143 Washington St,Hudson,MA,01749,437
234 Washington St,Hudson,MA,01749,438
350 Main St,Hudson,MA,01749,439
1 Bay St,Hull,MA,02045,440
1220 Iyannough Rd,Hyannis,MA,02601,441
147 North St,Hyannis,MA,02601,442
156 Iyannough Rd,Hyannis,MA,02601,443
317 Falmouth Rd,Hyannis,MA,02601,444
751 W Main St,Hyannis,MA,02601,445
1200 Hyde Park Ave,Hyde Park,MA,02136,446
1800 Hyde Park Ave,Hyde Park,MA,02136,447
942 Hyde Park Ave,Hyde Park,MA,02136,448
6 Lord Square,Ipswich,MA,01938,449
315 Centre St,Jamaica Plain,MA,02130,450
7 Walk Hill St,Jamaica Plain,MA,02130,451
757 Centre St,Jamaica Plain,MA,02130,452
1 Joseph St,Kingston,MA,02364,453
121 Main Street,Kingston,MA,02364,454
183 Summer St,Kingston,MA,02364,455
187 Summer St,Kingston,MA,02364,456
330 Bedford St,Lakeville,MA,02347,457
1474 Lunenburg Rd,Lancaster,MA,01523,458
100 Marston St,Lawrence,MA,01841,459
123 Lawrence St,Lawrence,MA,01841,460
226 Winthrop St,Lawrence,MA,01845,461
579 Andover St,Lawrence,MA,01843,462
99 Winthrop Ave,Lawrence,MA,01843,463
200 Housatonic St,Lee,MA,01238,464
1081 Main St,Leicester,MA,01524,465
1001 Central St,Leominster,MA,01453,466
180 Central St,Leominster,MA,01453,467
275 New Lancaster Rd,Leominster,MA,01453,468
280 New Lancaster Rd,Leominster,MA,01453,469
456 Main Street,Leominster,MA,01453,470
76 Main St,Leominster,MA,01453,471
804 N Main St,Leominster,MA,01453,472
10 Woburn St,Lexington,MA,02420,473
141 Massachusetts Ave,Lexington,MA,02420,474
277 Bedford St,Lexington,MA,02420,475
286 Lincoln St,Lexington,MA,02421,476
373 Waltham St,Lexington,MA,02421,477
915 Waltham St,Lexington,MA,02421,478
220 Great Rd,Littleton,MA,01460,479
25 King St,Littleton,MA,01460,480
460 King St,Littleton,MA,01460,481
711 Bliss Road,Longmeadow,MA,01106,482
1 Hospital Dr,Lowell,MA,01852,483
1081 Gorham St,Lowell,MA,01852,484
1505 Middlesex St,Lowell,MA,01851,485
182 Riverside St,Lowell,MA,01854,486
185 Woburn St,Lowell,MA,01852,487
24 Merrimack St,Lowell,MA,01852,488
290 Central St,Lowell,MA,01852,489
295 Varnum Ave,Lowell,MA,01854,490
443 Chelmsford St,Lowell,MA,01851,491
515 Pawtucket Blvd,Lowell,MA,01854,492
556 Dutton St,Lowell,MA,01854,493
560 Bridge St,Lowell,MA,01850,494
651 Rogers St,Lowell,MA,01852,495
980 Chelmsford St,Lowell,MA,01851,496
4 Harding Ave,Ludlow,MA,01056,497
134 Leominster Shirley Rd,Lunenburg,MA,01462,498
400 Electric Ave,Lunenburg,MA,01462,499
451 Massachusetts Ave,Lunenburg,MA,01462,500
116 Lewis St,Lynn,MA,01902,501
25 Boston St,Lynn,MA,01904,502
333 Lynnway,Lynn,MA,01901,503
364 Lynnway,Lynn,MA,01901,504
42 Market St,Lynn,MA,01901,505
50 Western Ave,Lynn,MA,01904,506
577 Walnut St,Lynn,MA,01905,507
625 Western Avenue,Lynn,MA,01905,508
80 Boston St,Lynn,MA,01904,509
819 Western Ave,Lynn,MA,01905,510
932 Lynnfield St,Lynn,MA,01904,511
7 Post Office Square,Lynnfield,MA,01940,512
8 Broadway,Lynnfield,MA,01940,513
155 Beach St,Malden,MA,02148,514
200 Commercial St,Malden,MA,02148,515
424 Main St,Malden,MA,02148,516
57 Eastern Ave,Malden,MA,02148,517
619 Broadway,Malden,MA,02148,518
655 Salem St,Malden,MA,02148,519
980 Eastern Ave,Malden,MA,02148,520
99 Charles St,Malden,MA,02148,521
40 Beach St,Manchester,MA,01944,522
321 School St,Mansfield,MA,02048,523
4 South Main St,Mansfield,MA,02048,524
45 Chauncy St,Mansfield,MA,02048,525
905 S Main Street,Mansfield,MA,02048,526
161 Pleasant St,Marblehead,MA,01945,527
450 Wareham Rd,Marion,MA,02738,528
199 Lakeside Ave,Marlboro,MA,01752,529
410 Lakeside Ave,Marlboro,MA,01752,530
413 Lakeside Ave,Marlboro,MA,01752,531
681 Boston Post Road,Marlboro,MA,01752,532
269 E Main St,Marlborough,MA,01752,533
312 Maple St,Marlborough,MA,01752,534
601 Donald Lynch Blvd,Marlborough,MA,01752,535
1862 Ocean St,Marshfield,MA,02050,536
928 Plain Street,Marshfield,MA,02050,537
3821 Falmouth Rd,Marstons Mills,MA,02648,538
40 South St,Mashpee,MA,02649,539
401 Main St,Mashpee,MA,02649,540
401 Nathan Ellis Hwy,Mashpee,MA,02649,541
1621 Blue Hill Ave,Mattapan,MA,02126,542
51 County Rd,Mattapoisett,MA,02739,543
129 Parker St,Maynard,MA,01754,544
5 Waltham St,Maynard,MA,01754,545
270 Main St,Medfield,MA,02052,546
563 Main St,Medfield,MA,02052,547
154 Main St,Medford,MA,02155,548
2 And 4 Salem St,Medford,MA,02155,549
275 Mystic Ave,Medford,MA,02155,550
283 Middlesex Ave,Medford,MA,02155,551
364 Boston Ave,Medford,MA,02155,552
4 Harvard Ave,Medford,MA,02155,553
430 Salem St,Medford,MA,02155,554
620 Fellsway,Medford,MA,02155,555
7 Commercial Street,Medford,MA,02155,556
42 Summer St,Medway,MA,02053,557
81A Main St,Medway,MA,02053,558
348 Main St,Melrose,MA,02176,559
470 Lynn Fells Pkwy,Melrose,MA,02176,560
4 Uxbridge Rd,Mendon,MA,01756,561
26 Broad St,Merrimac,MA,01860,562
147 Pelham St,Methuen,MA,01844,563
163 Howe St,Methuen,MA,01844,564
188 Haverhill St,Methuen,MA,01844,565
282 Merrimack St,Methuen,MA,01844,566
40 Jackson St,Methuen,MA,01844,567
450 Broadway,Methuen,MA,01844,568
464 Lowell St,Methuen,MA,01844,569
5 Ayers Village Rd,Methuen,MA,01844,570
58 Broadway,Methuen,MA,01844,571
70 East St,Methuen,MA,01844,572
3 E Grove St,Middleboro,MA,02346,573
447 Wareham St,Middleboro,MA,02346,574
47 Harding Street,Middleboro,MA,02346,575
565 W Grove St,Middleboro,MA,02346,576
15 Manning Rd,Middleton,MA,01949,577
241 Maple St,Middleton,MA,01949,578
260 S Main St,Middleton,MA,01949,579
275 North Main Street,Middleton,MA,01949,580
111 Cedar St,Milford,MA,01757,581
146 S Main St,Milford,MA,01757,582
31 Main St,Milford,MA,01757,583
35 Medway Rd,Milford,MA,01757,584
350 East Main St,Milford,MA,01757,585
1 Elm St,Millbury,MA,01527,586
100 Worcester Providence Tpk,Millbury,MA,01527,587
871 Main St,Millis,MA,02054,588
545 Adams St,Milton,MA,02186,589
153 Main St,Monson,MA,01057,590
117 W Central St,Natick,MA,01760,591
1245 Worcester St,Natick,MA,01760,592
1362 Worcester St,Natick,MA,01760,593
223 N Main St,Natick,MA,01760,594
50 East Central St,Natick,MA,01760,595
8 Massachusetts Ave,Natick,MA,01760,596
1203 Highland Ave,Needham,MA,02494,597
260 Chestnut St,Needham,MA,02492,598
399 Great Plain Ave,Needham,MA,02492,599
1121 Kempton St,New Bedford,MA,02740,600
1169 Braley Rd,New Bedford,MA,02745,601
131 Nauset St,New Bedford,MA,02746,602
1746 Purchase St,New Bedford,MA,02740,603
19 Rockdale Ave,New Bedford,MA,02740,604
207 Theodore Rice Blvd,New Bedford,MA,02745,605
2095 Acushnet Ave,New Bedford,MA,02745,606
231 Union St,New Bedford,MA,02740,607
3021 Acushnet Ave,New Bedford,MA,02745,608
380 Hathaway Rd,New Bedford,MA,02740,609
450 Ashley Blvd,New Bedford,MA,02745,610
53 Popes Island,New Bedford,MA,02740,611
929 Kempton St,New Bedford,MA,02740,612
950 Kings Hwy,New Bedford,MA,02745,613
951 Brock Ave,New Bedford,MA,02744,614
99 Belleville Ave,New Bedford,MA,02746,615
167 State St,Newburyport,MA,01950,616
45 Storey Ave,Newburyport,MA,01950,617
70 Storey Ave,Newburyport,MA,01950,618
1148 Beacon St,Newton,MA,02461,619
1250 Washington St,Newton,MA,02465,620
138 Needham St,Newton,MA,02464,621
2096 Commonwealth Ave,Newton,MA,02466,622
345 Washington St,Newton,MA,02458,623
38 Langley Rd,Newton,MA,02459,624
401 Watertown St,Newton,MA,02458,625
940 Boylston St,Newton,MA,02461,626
134 Main St,Norfolk,MA,02056,627
242 Dedham St,Norfolk,MA,02056,628
5 Union St,North Adams,MA,01247,629
1018 Osgood St,North Andover,MA,01845,630
315 Turnpike St,North Andover,MA,01845,631
535 Chickering Rd,North Andover,MA,01845,632
733 Turnpike St,North Andover,MA,01845,633
1470 S Washington St,North Attleboro,MA,02760,634
388 Elm St,North Attleboro,MA,02760,635
544 S Washington St,North Attleboro,MA,02760,636
605 E Washington St,North Attleboro,MA,02760,637
1 Republic Rd,North Billerica,MA,01862,638
181 Boston Rd,North Billerica,MA,01862,639
80 Chelmsford Rd,North Billerica,MA,01862,640
81 Tyngsboro Rd,North Chelmsford,MA,01863,641
127 Faunce Corner Rd,North Dartmouth,MA,02747,642
450 State Rd,North Dartmouth,MA,02747,643
465 Faunce Corner Road,North Dartmouth,MA,02747,644
420 Somerset Ave,North Dighton,MA,02764,645
285 Washington St,North Easton,MA,02356,646
3 Roche Bros Way,North Easton,MA,02356,647
320 Washington St,North Easton,MA,02356,648
700 Depot St,North Easton,MA,02356,649
634 N Falmouth Hwy,North Falmouth,MA,02556,650
138 Southbridge Rd,North Oxford,MA,01537,651
125 Hancock St,North Quincy,MA,02171,652
388 E. Squantum St,North Quincy,MA,02171,653
751 E Squantum St,North Quincy,MA,02171,654
13 Main St,North Reading,MA,01864,655
293 Main St,North Reading,MA,01864,656
6 Washington St,North Reading,MA,01864,657
645 Bridge St,North Weymouth,MA,02191,658
132 King St,Northampton,MA,01060,659
506 Pleasant St,Northampton,MA,01060,660
55 Damon Rd,Northampton,MA,01060,661
70 W Main St,Northborough,MA,01532,662
175 Mansfield Ave,Norton,MA,02766,663
246 E Main St,Norton,MA,02766,664
420 Old Colony Rd,Norton,MA,02766,665
10 Washington St,Norwell,MA,02061,666
1202 Providence Highway,Norwood,MA,02062,667
141 Nahatan St,Norwood,MA,02062,668
444 Walpole Street,Norwood,MA,02062,669
167 Daniel Shays Hwy,Orange,MA,01364,670
24 East River Street,Orange,MA,01364,671
136 Cranberry Highway,Orleans,MA,02653,672
792 Main St,Osterville,MA,02655,673
123 Sutton Ave,Oxford,MA,01540,674
17 Sutton Ave,Oxford,MA,01540,675
1144 Thorndike Street,Palmer,MA,01069,676
1559 N Main St,Palmer,MA,01069,677
607 Pleasant St,Paxton,MA,01612,678
117 Newbury St,Peabody,MA,01960,679
124 Newbury St,Peabody,MA,01960,680
162 Washington St,Peabody,MA,01960,681
256 Andover St,Peabody,MA,01960,682
3 Central St,Peabody,MA,01960,683
527 Lowell St,Peabody,MA,01960,684
672 Lowell St,Peabody,MA,01960,685
79 Lynnfield St,Peabody,MA,01960,686
145 Church St,Pembroke,MA,02359,687
152 Center St,Pembroke,MA,02359,688
155 Church St,Pembroke,MA,02359,689
355 Washington St,Pembroke,MA,02359,690
61-63 Main St,Pepperell,MA,01463,691
1025 South St,Pittsfield,MA,01201,692
1653 North St,Pittsfield,MA,01201,693
18 1st St,Pittsfield,MA,01201,694
425 East St,Pittsfield,MA,01201,695
480 West Housatonic St,Pittsfield,MA,01201,696
84 Dalton Ave,Pittsfield,MA,01201,697
301 Washington St,Plainville,MA,02762,698
4 Taunton St,Plainville,MA,02762,699
86A Washington St,Plainville,MA,02762,700
105 Samoset St,Plymouth,MA,02360,701
11 Long Pond Rd,Plymouth,MA,02360,702
131 Commerce Way,Plymouth,MA,02360,703
134 Samoset Street,Plymouth,MA,02360,704
160 South St,Plymouth,MA,02360,705
23 Commerce Way,Plymouth,MA,02360,706
2300 State Rd,Plymouth,MA,02360,707
265 South Meadow Rd,Plymouth,MA,02360,708
275 A Sandwich St,Plymouth,MA,02360,709
367 Court St,Plymouth,MA,02360,710
765 State Rd,Plymouth,MA,02360,711
688 Mac Arthur Blvd/Rt 28,Pocasset,MA,02559,712
100 Granite St,Quincy,MA,02169,713
195 Newport Ave,Quincy,MA,02170,714
243 Quincy Ave,Quincy,MA,02169,715
360-364 Sea Street,Quincy,MA,02169,716
366 Centre St,Quincy,MA,02169,717
543 Southern Artery,Quincy,MA,02169,718
550 Adams St,Quincy,MA,02169,719
588 Washington St,Quincy,MA,02169,720
65 Newport Ave,Quincy,MA,02171,721
687 Hancock St,Quincy,MA,02170,722
95 Franklin St,Quincy,MA,02169,723
105 Mazzeo Drive,Randolph,MA,02368,724
1245 N Main St,Randolph,MA,02368,725
1375-1395 N Main St,Randolph,MA,02368,726
39 Warren St,Randolph,MA,02368,727
1023 Broadway,Raynham,MA,02767,728
1701 Broadway,Raynham,MA,02767,729
290 Broadway,Raynham,MA,02767,730
406 New State Hwy,Raynham,MA,02767,731
748 New State Highway,Raynham,MA,02767,732
110 Main St,Reading,MA,01867,733
273 Salem St,Reading,MA,01867,734
4 West St,Reading,MA,01867,735
454 Main St,Reading,MA,01867,736
87 Walkers Brook Dr,Reading,MA,01867,737
227 Winthrop St,Rehoboth,MA,02769,738
3 Park St,Rehoboth,MA,02769,739
1 Bennington St,Revere,MA,02151,740
145 Broadway,Revere,MA,02151,741
30 Squire Rd,Revere,MA,02151,742
338 Squire Rd,Revere,MA,02151,743
35 Squire Rd,Revere,MA,02151,744
41 Lee Burbank Hwy,Revere,MA,02151,745
477 Beach St,Revere,MA,02151,746
5 Ward St,Revere,MA,02151,747
555 North Shore Rd,Revere,MA,02151,748
1149 Hingham St,Rockland,MA,02370,749
165 Market St,Rockland,MA,02370,750
851 Hingham St,Rockland,MA,02370,751
4175 Washington St,Roslindale,MA,02131,752
4610 Washington St,Roslindale,MA,02131,753
684 American Legion Hwy,Roslindale,MA,02131,754
148 Newburyport Turnpike,Rowley,MA,01969,755
1926 Columbus Ave,Roxbury,MA,02119,756
2360 Washington St,Roxbury,MA,02119,757
2493 Washington St,Roxbury,MA,02119,758
850 Harrison Ave,Roxbury,MA,02118,759
255 Main St,Rutland,MA,01543,760
24 Meetinghouse Ln,Sagamore Beach,MA,02562,761
105 North St,Salem,MA,01970,762
152 Washington St,Salem,MA,01970,763
201 Canal St,Salem,MA,01970,764
248 Highland Ave,Salem,MA,01970,765
31 Bridge St,Salem,MA,01970,766
352 Lafayette St,Salem,MA,01970,767
429 Highland Ave,Salem,MA,01970,768
68 Boston St,Salem,MA,01970,769
9 1/2 Paradise Rd,Salem,MA,01970,770
15 Lafayette Rd,Salisbury,MA,01952,771
192 Elm St,Salisbury,MA,01952,772
61 Main St,Salisbury,MA,01952,773
111 Route 6A,Sandwich,MA,02563,774
273 Cotuit Rd,Sandwich,MA,02563,775
290 Route 130,Sandwich,MA,02563,776
336 Route 130,Sandwich,MA,02563,777
1204 Broadway,Saugus,MA,01906,778
1539 Broadway,Saugus,MA,01906,779
339 Main St,Saugus,MA,01906,780
35 Lincoln Ave,Saugus,MA,01906,781
42 Hamilton St,Saugus,MA,01906,782
508 Lincoln Ave,Saugus,MA,01906,783
533 Broadway,Saugus,MA,01906,784
86 Broadway,Saugus,MA,01906,785
108 Front St,Scituate,MA,02066,786
32 Driftway,Scituate,MA,02066,787
1035 Newman Ave,Seekonk,MA,02771,788
1200 Fall River Ave,Seekonk,MA,02771,789
198 Taunton Ave,Seekonk,MA,02771,790
4 Highland Ave,Seekonk,MA,02771,791
623 Fall River Ave,Seekonk,MA,02771,792
822 Fall River Ave,Seekonk,MA,02771,793
700 S Main St,Sharon,MA,02067,794
21 S Main St,Sherborn,MA,01770,795
2 Fredonian St,Shirley,MA,01464,796
118 Boston Tpke,Shrewsbury,MA,01545,797
271 Boston Turnpike,Shrewsbury,MA,01545,798
307 Hartford Tpke,Shrewsbury,MA,01545,799
36 Maple Ave,Shrewsbury,MA,01545,800
866 Hartford Tpke,Shrewsbury,MA,01545,801
1073 Grand Army Hwy,Somerset,MA,02726,802
2756 County St,Somerset,MA,02726,803
505 Gar Hwy,Somerset,MA,02726,804
978 County St,Somerset,MA,02726,805
14 McGrath Hwy,Somerville,MA,02143,806
154 Highland Ave,Somerville,MA,02143,807
220 Broadway,Somerville,MA,02145,808
282 Somerville Ave,Somerville,MA,02143,809
379 Alewife Brook Pky,Somerville,MA,02144,810
498 Mystic Ave,Somerville,MA,02145,811
504 Broadway,Somerville,MA,02145,812
519 Somerville Ave,Somerville,MA,02143,813
709 McGrath Hwy,Somerville,MA,02145,814
850 Broadway,Somerville,MA,02144,815
48 W Broadway,South Boston,MA,02127,816
75 Old Colony Ave,South Boston,MA,02127,817
77 L St,South Boston,MA,02127,818
One Harbor St,South Boston,MA,02127,819
550 Russells Mills Rd,South Dartmouth,MA,02748,820
1 Greenfield Rd,South Deerfield,MA,01373,821
497 Route 134,South Dennis,MA,02660,822
6 Enterprise Rd,South Dennis,MA,02660,823
606 Washington St,South Easton,MA,02375,824
491 Newton St,South Hadley,MA,01075,825
15 Walnut Rd,South Hamilton,MA,01982,826
755 Main St,South Weymouth,MA,02190,827
1050 Route 28,South Yarmouth,MA,02664,828
1353 Route 28,South Yarmouth,MA,02664,829
436 Station Ave,South Yarmouth,MA,02664,830
136 College Highway,Southampton,MA,01073,831
162 Cordaville Rd,Southborough,MA,01772,832
386 E. Main St,Southbridge,MA,01550,833
419-423 Main St,Southbridge,MA,01550,834
736 Worcester St,Southbridge,MA,01550,835
208 College Hwy,Southwick,MA,01077,836
397 College Hwy,Southwick,MA,01077,837
353 Main St,Spencer,MA,01562,838
72 W Main St,Spencer,MA,01562,839
100 Congress St,Springfield,MA,01104,840
1046 Wilbraham Rd,Springfield,MA,01109,841
11 Tapley St,Springfield,MA,01104,842
1190 Boston Rd,Springfield,MA,01119,843
1211 East Columbus Ave,Springfield,MA,01105,844
1218 State St,Springfield,MA,01109,845
1252 Saint James Ave,Springfield,MA,01104,846
1287 Page Boulevard,Springfield,MA,01104,847
140 Armory St,Springfield,MA,01105,848
1487 Bay St,Springfield,MA,01109,849
1500 Main St,Springfield,MA,01115,850
1761 Allen St,Springfield,MA,01118,851
1918 Wilbraham Rd,Springfield,MA,01129,852
273 Hancock St,Springfield,MA,01109,853
3065 Main St,Springfield,MA,01107,854
350 Cottage Street,Springfield,MA,01104,855
55 Frank B Murray St,Springfield,MA,01103,856
568 Belmont Ave,Springfield,MA,01108,857
570 Sumner Avenue,Springfield,MA,01108,858
694 Page Blvd,Springfield,MA,01104,859
695 Liberty St,Springfield,MA,01104,860
77 West St,Springfield,MA,01104,861
805 Main St,Springfield,MA,01105,862
50 Leominster Rd,Sterling,MA,01564,863
128 Franklin St,Stoneham,MA,02180,864
196 Main St,Stoneham,MA,02180,865
2 Lynn Fells Pkwy,Stoneham,MA,02180,866
259 Main St,Stoneham,MA,02180,867
62A Montvale Ave,Stoneham,MA,02180,868
65 Main St,Stoneham,MA,02180,869
145 Sharon St,Stoughton,MA,02072,870
1516 Turnpike St,Stoughton,MA,02072,871
287 Park St,Stoughton,MA,02072,872
372 Washington St,Stoughton,MA,02072,873
438 Washington St,Stoughton,MA,02072,874
120 Main St,Sturbridge,MA,01566,875
215 Charlton Rd,Sturbridge,MA,01566,876
236 Route 15,Sturbridge,MA,01566,877
378 Boston Post Rd,Sudbury,MA,01776,878
303 Amherst Rd,Sunderland,MA,01375,879
27 Worcester Providence Tpke,Sutton,MA,01590,880
980 Paradise Rd,Swampscott,MA,01907,881
175 Maple Ave,Swansea,MA,02777,882
2345 G A R Hwy,Swansea,MA,02777,883
2368 G A R Hwy,Swansea,MA,02777,884
328 Wilbur Ave,Swansea,MA,02777,885
651 Gar Hwy,Swansea,MA,02777,886
148 N Walker St,Taunton,MA,02780,887
19 Cape Hwy Rt 44,Taunton,MA,02780,888
2070 Bay St,Taunton,MA,02780,889
232 Broadway,Taunton,MA,02780,890
336 Winthrop St,Taunton,MA,02780,891
43 Worcester St,Taunton,MA,02780,892
491 Weir St,Taunton,MA,02780,893
5 Washington St,Taunton,MA,02780,894
508 Middleboro Ave,Taunton,MA,02718,895
648 County St,Taunton,MA,02780,896
983 County St,Taunton,MA,02780,897
4 Sandwich Road,Teaticket,MA,02536,898
212 Patriots Rd,Templeton,MA,01468,899
1220 Main Street,Tewksbury,MA,01876,900
1699 Shawsheen Rd,Tewksbury,MA,01876,901
1785 Andover St,Tewksbury,MA,01876,902
1973 Main St,Tewksbury,MA,01876,903
1992 Main St,Tewksbury,MA,01876,904
381 Main St,Tewksbury,MA,01876,905
5 East St,Tewksbury,MA,01876,906
940 Andover St,Tewksbury,MA,01876,907
367 Boston St,Topsfield,MA,01983,908
17 Elm St,Townsend,MA,01469,909
28 Main St,Townsend,MA,01469,910
440 Middlesex Rd,Tyngsborough,MA,01879,911
95 Westford Road,Tyngsborough,MA,01879,912
10 Hartford Ave,Upton,MA,01568,913
158 N Main St,Uxbridge,MA,01569,914
30 Lackey Dam Rd,Uxbridge,MA,01569,915
225 North Ave,Wakefield,MA,01880,916
518 Salem St,Wakefield,MA,01880,917
632 Main St,Wakefield,MA,01880,918
1425 Main St,Walpole,MA,02081,919
506 High Plain St,Walpole,MA,02081,920
703 Main St,Walpole,MA,02081,921
995 Old Post Rd,Walpole,MA,02081,922
130 Lexington St,Waltham,MA,02452,923
175 Forest St,Waltham,MA,02452,924
415 South St,Waltham,MA,02453,925
49 River St,Waltham,MA,02453,926
511 Totten Pond Rd,Waltham,MA,02451,927
53 Linden St,Waltham,MA,02452,928
591 Moody St,Waltham,MA,02453,929
75 Third Ave,Waltham,MA,02451,930
859 Main St,Waltham,MA,02451,931
876A Lexington St,Waltham,MA,02452,932
139 West St,Ware,MA,01082,933
195 Marion Rd,Wareham,MA,02571,934
2360 Cranberry Hwy,Wareham,MA,02571,935
2505 Cranberry Hwy,Wareham,MA,02571,936
419 Main St,Wareham,MA,02571,937
1300 W Main St,Warren,MA,01083,938
171 Watertown Street,Watertown,MA,02472,939
448 Main St,Watertown,MA,02472,940
49 Mount Auburn St,Watertown,MA,02472,941
635 Mount Auburn St,Watertown,MA,02472,942
640 Arsenal St,Watertown,MA,02472,943
15 E Plain St,Wayland,MA,01778,944
137 E Main St,Webster,MA,01570,945
144 Thompson Rd,Webster,MA,01570,946
170 Thompson Rd,Webster,MA,01570,947
83 E Main St,Webster,MA,01570,948
12 Washington St,Wellesley,MA,02481,949
277 Linden St,Wellesley,MA,02482,950
951 Worcester St,Wellesley,MA,02482,951
978 Worcester St,Wellesley,MA,02482,952
2393 State Hwy Rte 6,Wellfleet,MA,02667,953
2135 Iyannough Rd,West Barnstable,MA,02668,954
244 W Boylston St,West Boylston,MA,01583,955
387 W Center St,West Bridgewater,MA,02379,956
506 W Center St,West Bridgewater,MA,02379,957
575 West Center St,West Bridgewater,MA,02379,958
9 North Main St,West Bridgewater,MA,02379,959
92 W. Main St,West Brookfield,MA,01585,960
1191 Main St,West Concord,MA,01742,961
927 Main St,West Dennis,MA,02670,962
1435-1445 Vfw Pkwy,West Roxbury,MA,02132,963
155 Spring St,West Roxbury,MA,02132,964
5305 Washington St,West Roxbury,MA,02132,965
11 Pierce St,West Springfield,MA,01089,966
1305 Memorial Ave,West Springfield,MA,01089,967
1333 Westfield St,West Springfield,MA,01089,968
2068 Riverdale St,West Springfield,MA,01089,969
85 Memorial Ave,West Springfield,MA,01089,970
464 Route 28,West Yarmouth,MA,02673,971
124 Turnpike Rd,Westborough,MA,01581,972
166 Milk St,Westborough,MA,01581,973
185 Turnpike Rd,Westborough,MA,01581,974
35 East Main St,Westborough,MA,01581,975
Mile 105 Mass Turnpike,Westborough,MA,01581,976
1 Ely Rd,Westfield,MA,01085,977
1056 North Rd,Westfield,MA,01085,978
127 N Elm St,Westfield,MA,01085,979
20 Southwick Rd,Westfield,MA,01085,980
212 Southampton Road,Westfield,MA,01085,981
439 N Elm St,Westfield,MA,01085,982
625 E Main St,Westfield,MA,01085,983
93 Main St,Westfield,MA,01085,984
160 Littleton Rd,Westford,MA,01886,985
179 Littleton Rd,Westford,MA,01886,986
223 Groton Rd,Westford,MA,01886,987
294B Littleton Rd,Westford,MA,01886,988
500 Groton Rd,Westford,MA,01886,989
21 Village Inn Rd,Westminster,MA,01473,990
97 Main St,Westminster,MA,01473,991
88 Boston Post Rd,Weston,MA,02493,992
175 State Rd,Westport,MA,02790,993
115 Providence Hwy,Westwood,MA,02090,994
208 Providence Hgwy,Westwood,MA,02090,995
400 Washington St,Westwood,MA,02090,996
50 University Ave,Westwood,MA,02090,997
915 High St,Westwood,MA,02090,998
1255 Main St,Weymouth,MA,02190,999
1540 Commercial St,Weymouth,MA,02189,1000
162-180 Bridge St,Weymouth,MA,02191,1001
185 Washington St,Weymouth,MA,02188,1002
38 Winter St,Weymouth,MA,02188,1003
634 Middle St,Weymouth,MA,02189,1004
807 Washington St,Weymouth,MA,02189,1005
1083 Providence Rd,Whitinsville,MA,01588,1006
4 N Main St,Whitinsville,MA,01588,1007
26 South Ave,Whitman,MA,02382,1008
281 Bedford St,Whitman,MA,02382,1009
811 Bedford St,Whitman,MA,02382,1010
2144 Boston Rd,Wilbraham,MA,01095,1011
361 Main St,Williamstown,MA,01267,1012
195 Main St,Wilmington,MA,01887,1013
206 Ballardvale St,Wilmington,MA,01887,1014
211 Lowell St,Wilmington,MA,01887,1015
316 Lowell St,Wilmington,MA,01887,1016
321 Main St,Wilmington,MA,01887,1017
357 Middlesex Ave,Wilmington,MA,01887,1018
586 Main St,Wilmington,MA,01887,1019
66 Concord St,Wilmington,MA,01887,1020
5 Central St,Winchendon,MA,01475,1021
93 Gardner Rd,Winchendon,MA,01475,1022
797 Main St,Winchester,MA,01890,1023
20 Main St,Winthrop,MA,02152,1024
230 Revere Street,Winthrop,MA,02152,1025
185 Cambridge Rd,Woburn,MA,01801,1026
305 Mishawum Rd,Woburn,MA,01801,1027
318 Montvale Ave,Woburn,MA,01801,1028
344 Washington St,Woburn,MA,01801,1029
36 Commerce Way,Woburn,MA,01801,1030
400 Cambridge Rd,Woburn,MA,01801,1031
409 Main St,Woburn,MA,01801,1032
75 Main St,Woburn,MA,01801,1033
880 Main St,Woburn,MA,01801,1034
100 Institute Rd,Worcester,MA,01609,1035
104 Belmont St,Worcester,MA,01605,1036
123 Summer St,Worcester,MA,01608,1037
1283 Main St,Worcester,MA,01603,1038
177 Southwest Cutoff,Worcester,MA,01604,1039
185 Park Ave,Worcester,MA,01609,1040
211 Chandler St,Worcester,MA,01609,1041
257 Providence St,Worcester,MA,01607,1042
265 Grafton St,Worcester,MA,01604,1043
295 Shrewsbury St,Worcester,MA,01604,1044
310 Belmont St,Worcester,MA,01604,1045
340 Grove St,Worcester,MA,01605,1046
421-427 Main St,Worcester,MA,01608,1047
490 Lincoln St,Worcester,MA,01605,1048
543 Lincoln St,Worcester,MA,01605,1049
55 N Lake Ave,Worcester,MA,01655,1050
590 Southbridge St,Worcester,MA,01610,1051
60 S Ludlow St,Worcester,MA,01603,1052
640 Park Ave,Worcester,MA,01603,1053
648 Chandler St,Worcester,MA,01602,1054
665 Plantation St,Worcester,MA,01605,1055
67 W Boylston St,Worcester,MA,01606,1056
765 W Boylston St,Worcester,MA,01606,1057
845 Main St,Worcester,MA,01610,1058
990 Grafton St,Worcester,MA,01604,1059
1001 South St,Wrentham,MA,02093,1060
1048 South St,Wrentham,MA,02093,1061
29 Franklin St,Wrentham,MA,02093,1062
